CCSDS_OMM_VERS = 2.0
CREATION_DATE  = 
ORIGINATOR     = 

OBJECT_NAME    = STARLINK-36128
OBJECT_ID      = 2025-281AB
CENTER_NAME    = EARTH
REF_FRAME      = TEME
TIME_SYSTEM    = UTC
MEAN_ELEMENT_THEORY = SGP/SGP4

EPOCH          = 2025-12-16T06:00:02.999808
MEAN_MOTION    = 15.80425240
ECCENTRICITY   = .00013104
INCLINATION    = 43.0000
RA_OF_ASC_NODE = 100.5544
ARG_OF_PERICENTER = 267.5828
MEAN_ANOMALY   = 227.9922

EPHEMERIS_TYPE = 0
CLASSIFICATION_TYPE = U
NORAD_CAT_ID   = 66873
ELEMENT_SET_NO = 999
REV_AT_EPOCH   = 199
BSTAR          = -.97622851E-2
MEAN_MOTION_DOT = -.1658662E-1
MEAN_MOTION_DDOT = 0

CCSDS_OMM_VERS = 2.0
CREATION_DATE  = 
ORIGINATOR     = 

OBJECT_NAME    = STARLINK-36129
OBJECT_ID      = 2025-281AC
CENTER_NAME    = EARTH
REF_FRAME      = TEME
TIME_SYSTEM    = UTC
MEAN_ELEMENT_THEORY = SGP/SGP4

EPOCH          = 2025-12-16T06:00:02.999808
MEAN_MOTION    = 15.80602497
ECCENTRICITY   = .00013199
INCLINATION    = 43.0003
RA_OF_ASC_NODE = 100.5674
ARG_OF_PERICENTER = 275.4792
MEAN_ANOMALY   = 215.1306

EPHEMERIS_TYPE = 0
CLASSIFICATION_TYPE = U
NORAD_CAT_ID   = 66874
ELEMENT_SET_NO = 999
REV_AT_EPOCH   = 199
BSTAR          = -.9588639E-2
MEAN_MOTION_DOT = -.1644857E-1
MEAN_MOTION_DDOT = 0

CCSDS_OMM_VERS = 2.0
CREATION_DATE  = 
ORIGINATOR     = 

OBJECT_NAME    = STARLINK-36053
OBJECT_ID      = 2025-281AD
CENTER_NAME    = EARTH
REF_FRAME      = TEME
TIME_SYSTEM    = UTC
MEAN_ELEMENT_THEORY = SGP/SGP4

EPOCH          = 2025-12-16T06:00:02.999808
MEAN_MOTION    = 15.80308434
ECCENTRICITY   = .00014372
INCLINATION    = 43.0002
RA_OF_ASC_NODE = 100.5473
ARG_OF_PERICENTER = 274.2861
MEAN_ANOMALY   = 223.9017

EPHEMERIS_TYPE = 0
CLASSIFICATION_TYPE = U
NORAD_CAT_ID   = 66875
ELEMENT_SET_NO = 999
REV_AT_EPOCH   = 199
BSTAR          = -.99646479E-2
MEAN_MOTION_DOT = -.1715421E-1
MEAN_MOTION_DDOT = 0

CCSDS_OMM_VERS = 2.0
CREATION_DATE  = 
ORIGINATOR     = 

OBJECT_NAME    = STARLINK-35702
OBJECT_ID      = 2025-281AE
CENTER_NAME    = EARTH
REF_FRAME      = TEME
TIME_SYSTEM    = UTC
MEAN_ELEMENT_THEORY = SGP/SGP4

EPOCH          = 2025-12-16T06:00:02.999808
MEAN_MOTION    = 15.80458078
ECCENTRICITY   = .00013012
INCLINATION    = 43.0003
RA_OF_ASC_NODE = 100.5602
ARG_OF_PERICENTER = 278.0479
MEAN_ANOMALY   = 215.4001

EPHEMERIS_TYPE = 0
CLASSIFICATION_TYPE = U
NORAD_CAT_ID   = 66876
ELEMENT_SET_NO = 999
REV_AT_EPOCH   = 199
BSTAR          = -.97424421E-2
MEAN_MOTION_DOT = -.1657934E-1
MEAN_MOTION_DDOT = 0

CCSDS_OMM_VERS = 2.0
CREATION_DATE  = 
ORIGINATOR     = 

OBJECT_NAME    = ZQ-3 R/B
OBJECT_ID      = 2025-282A
CENTER_NAME    = EARTH
REF_FRAME      = TEME
TIME_SYSTEM    = UTC
MEAN_ELEMENT_THEORY = SGP/SGP4

EPOCH          = 2025-12-16T07:11:08.720736
MEAN_MOTION    = 14.66866709
ECCENTRICITY   = .07484442
INCLINATION    = 56.9512
RA_OF_ASC_NODE = 43.9720
ARG_OF_PERICENTER = 226.1521
MEAN_ANOMALY   = 127.5280

EPHEMERIS_TYPE = 0
CLASSIFICATION_TYPE = U
NORAD_CAT_ID   = 66877
ELEMENT_SET_NO = 999
REV_AT_EPOCH   = 191
BSTAR          = .2049951E-3
MEAN_MOTION_DOT = .1073213E-1
MEAN_MOTION_DDOT = .7608496E-5

CCSDS_OMM_VERS = 2.0
CREATION_DATE  = 
ORIGINATOR     = 

OBJECT_NAME    = STARLINK-35866
OBJECT_ID      = 2025-283A
CENTER_NAME    = EARTH
REF_FRAME      = TEME
TIME_SYSTEM    = UTC
MEAN_ELEMENT_THEORY = SGP/SGP4

EPOCH          = 2025-12-16T06:56:20.585760
MEAN_MOTION    = 15.85723836
ECCENTRICITY   = .00007912
INCLINATION    = 53.1553
RA_OF_ASC_NODE = 55.9741
ARG_OF_PERICENTER = 310.0922
MEAN_ANOMALY   = 50.0033

EPHEMERIS_TYPE = 0
CLASSIFICATION_TYPE = U
NORAD_CAT_ID   = 66878
ELEMENT_SET_NO = 999
REV_AT_EPOCH   = 301
BSTAR          = .12182646E-2
MEAN_MOTION_DOT = .312674E-2
MEAN_MOTION_DDOT = 0

CCSDS_OMM_VERS = 2.0
CREATION_DATE  = 
ORIGINATOR     = 

OBJECT_NAME    = STARLINK-35749
OBJECT_ID      = 2025-283B
CENTER_NAME    = EARTH
REF_FRAME      = TEME
TIME_SYSTEM    = UTC
MEAN_ELEMENT_THEORY = SGP/SGP4

EPOCH          = 2025-12-16T06:54:27.611712
MEAN_MOTION    = 15.85840886
ECCENTRICITY   = .00008617
INCLINATION    = 53.1553
RA_OF_ASC_NODE = 55.9657
ARG_OF_PERICENTER = 333.2835
MEAN_ANOMALY   = 26.8146

EPHEMERIS_TYPE = 0
CLASSIFICATION_TYPE = U
NORAD_CAT_ID   = 66879
ELEMENT_SET_NO = 999
REV_AT_EPOCH   = 301
BSTAR          = -.36252252E-2
MEAN_MOTION_DOT = -.825517E-2
MEAN_MOTION_DDOT = 0

CCSDS_OMM_VERS = 2.0
CREATION_DATE  = 
ORIGINATOR     = 

OBJECT_NAME    = STARLINK-35844
OBJECT_ID      = 2025-283C
CENTER_NAME    = EARTH
REF_FRAME      = TEME
TIME_SYSTEM    = UTC
MEAN_ELEMENT_THEORY = SGP/SGP4

EPOCH          = 2025-12-16T06:54:58.450464
MEAN_MOTION    = 15.86195873
ECCENTRICITY   = .00089822
INCLINATION    = 53.1554
RA_OF_ASC_NODE = 55.9680
ARG_OF_PERICENTER = 295.8760
MEAN_ANOMALY   = 64.1339

EPHEMERIS_TYPE = 0
CLASSIFICATION_TYPE = U
NORAD_CAT_ID   = 66880
ELEMENT_SET_NO = 999
REV_AT_EPOCH   = 301
BSTAR          = -.88806291E-2
MEAN_MOTION_DOT = -.1978766E-1
MEAN_MOTION_DDOT = 0

CCSDS_OMM_VERS = 2.0
CREATION_DATE  = 
ORIGINATOR     = 

OBJECT_NAME    = STARLINK-35860
OBJECT_ID      = 2025-283D
CENTER_NAME    = EARTH
REF_FRAME      = TEME
TIME_SYSTEM    = UTC
MEAN_ELEMENT_THEORY = SGP/SGP4

EPOCH          = 2025-12-16T06:53:50.819136
MEAN_MOTION    = 15.85857166
ECCENTRICITY   = .00010085
INCLINATION    = 53.1549
RA_OF_ASC_NODE = 55.9623
ARG_OF_PERICENTER = 323.7744
MEAN_ANOMALY   = 36.3213

EPHEMERIS_TYPE = 0
CLASSIFICATION_TYPE = U
NORAD_CAT_ID   = 66881
ELEMENT_SET_NO = 999
REV_AT_EPOCH   = 301
BSTAR          = -.37314989E-2
MEAN_MOTION_DOT = -.848216E-2
MEAN_MOTION_DDOT = 0

CCSDS_OMM_VERS = 2.0
CREATION_DATE  = 
ORIGINATOR     = 

OBJECT_NAME    = STARLINK-35912
OBJECT_ID      = 2025-283E
CENTER_NAME    = EARTH
REF_FRAME      = TEME
TIME_SYSTEM    = UTC
MEAN_ELEMENT_THEORY = SGP/SGP4

EPOCH          = 2025-12-16T06:53:12.485184
MEAN_MOTION    = 15.85769344
ECCENTRICITY   = .00019982
INCLINATION    = 53.1553
RA_OF_ASC_NODE = 55.9606
ARG_OF_PERICENTER = 323.9776
MEAN_ANOMALY   = 36.1114

EPHEMERIS_TYPE = 0
CLASSIFICATION_TYPE = U
NORAD_CAT_ID   = 66882
ELEMENT_SET_NO = 999
REV_AT_EPOCH   = 301
BSTAR          = -.177632E-2
MEAN_MOTION_DOT = -.422323E-2
MEAN_MOTION_DDOT = 0

CCSDS_OMM_VERS = 2.0
CREATION_DATE  = 
ORIGINATOR     = 

OBJECT_NAME    = STARLINK-35947
OBJECT_ID      = 2025-283F
CENTER_NAME    = EARTH
REF_FRAME      = TEME
TIME_SYSTEM    = UTC
MEAN_ELEMENT_THEORY = SGP/SGP4

EPOCH          = 2025-12-16T06:52:34.257504
MEAN_MOTION    = 15.86495118
ECCENTRICITY   = .00143553
INCLINATION    = 53.1553
RA_OF_ASC_NODE = 55.9566
ARG_OF_PERICENTER = 313.3277
MEAN_ANOMALY   = 46.6551

EPHEMERIS_TYPE = 0
CLASSIFICATION_TYPE = U
NORAD_CAT_ID   = 66883
ELEMENT_SET_NO = 999
REV_AT_EPOCH   = 303
BSTAR          = -.11206909E-1
MEAN_MOTION_DOT = -.2460974E-1
MEAN_MOTION_DDOT = 0

CCSDS_OMM_VERS = 2.0
CREATION_DATE  = 
ORIGINATOR     = 

OBJECT_NAME    = STARLINK-36057
OBJECT_ID      = 2025-283G
CENTER_NAME    = EARTH
REF_FRAME      = TEME
TIME_SYSTEM    = UTC
MEAN_ELEMENT_THEORY = SGP/SGP4

EPOCH          = 2025-12-16T05:20:25.176768
MEAN_MOTION    = 15.88232476
ECCENTRICITY   = .00105
INCLINATION    = 53.1549
RA_OF_ASC_NODE = 56.2679
ARG_OF_PERICENTER = 238.2562
MEAN_ANOMALY   = 121.7442

EPHEMERIS_TYPE = 0
CLASSIFICATION_TYPE = U
NORAD_CAT_ID   = 66884
ELEMENT_SET_NO = 999
REV_AT_EPOCH   = 300
BSTAR          = .22938557E-2
MEAN_MOTION_DOT = .698018E-2
MEAN_MOTION_DDOT = 0

