STARLINK-36128          
1 66873U 25281AB  25350.25003472 -.01658662  00000+0 -97623-2 0  9990
2 66873  43.0000 100.5544 0001310 267.5828 227.9922 15.80425240  1994
STARLINK-36129          
1 66874U 25281AC  25350.25003472 -.01644857  00000+0 -95886-2 0  9991
2 66874  43.0003 100.5674 0001319 275.4792 215.1306 15.80602497  1995
STARLINK-36053          
1 66875U 25281AD  25350.25003472 -.01715421  00000+0 -99646-2 0  9996
2 66875  43.0002 100.5473 0001437 274.2861 223.9017 15.80308434  1997
STARLINK-35702          
1 66876U 25281AE  25350.25003472 -.01657934  00000+0 -97424-2 0  9993
2 66876  43.0003 100.5602 0001301 278.0479 215.4001 15.80458078  1999
ZQ-3 R/B                
1 66877U 25282A   25350.29940649  .01073213  76085-5  20500-3 0  9999
2 66877  56.9512  43.9720 0748444 226.1521 127.5280 14.66866709  1918
STARLINK-35866          
1 66878U 25283A   25350.28912715  .00312674  00000+0  12183-2 0  9994
2 66878  53.1553  55.9741 0000791 310.0922  50.0033 15.85723836  3017
STARLINK-35749          
1 66879U 25283B   25350.28781958 -.00825517  00000+0 -36252-2 0  9998
2 66879  53.1553  55.9657 0000861 333.2835  26.8146 15.85840886  3013
STARLINK-35844          
1 66880U 25283C   25350.28817651 -.01978766  00000+0 -88806-2 0  9998
2 66880  53.1554  55.9680 0008982 295.8760  64.1339 15.86195873  3013
STARLINK-35860          
1 66881U 25283D   25350.28739374 -.00848216  00000+0 -37315-2 0  9998
2 66881  53.1549  55.9623 0001008 323.7744  36.3213 15.85857166  3011
STARLINK-35912          
1 66882U 25283E   25350.28695006 -.00422323  00000+0 -17763-2 0  9994
2 66882  53.1553  55.9606 0001998 323.9776  36.1114 15.85769344  3011
STARLINK-35947          
1 66883U 25283F   25350.28650761 -.02460974  00000+0 -11207-1 0  9996
2 66883  53.1553  55.9566 0014355 313.3277  46.6551 15.86495118  3036
STARLINK-36057          
1 66884U 25283G   25350.22251362  .00698018  00000+0  22939-2 0  9998
2 66884  53.1549  56.2679 0010500 238.2562 121.7442 15.88232476  3000
